{
  "type": "FeatureCollection",
  "features": [
    {
      "type": "Feature",
      "properties": {
        "norad_id": 38338,
        "name": "ARIRANG-3 (KOMPSAT-3)",
        "group": "resource",
        "lat": NaN,
        "lon": NaN,
        "alt_km": NaN,
        "timestamp": "2025-12-01T03:03:40.644114+00:00",
        "meta": {
          "OBJECT_NAME": "ARIRANG-3 (KOMPSAT-3)",
          "OBJECT_ID": "2012-025B",
          "EPOCH": "2025-11-30T19:58:14.456064",
          "MEAN_MOTION": 14.61686182,
          "ECCENTRICITY": 0.0006197,
          "INCLINATION": 98.3304,
          "RA_OF_ASC_NODE": 289.3331,
          "ARG_OF_PERICENTER": 15.6682,
          "MEAN_ANOMALY": 344.4709,
          "EPHEMERIS_TYPE": 0,
          "CLASSIFICATION_TYPE": "U",
          "NORAD_CAT_ID": 38338,
          "ELEMENT_SET_NO": 999,
          "REV_AT_EPOCH": 72236,
          "BSTAR": 0.00013885,
          "MEAN_MOTION_DOT": 6.43e-06,
          "MEAN_MOTION_DDOT": 0
        }
      },
      "geometry": {
        "type": "Point",
        "coordinates": [
          NaN,
          NaN
        ]
      }
    },
    {
      "type": "Feature",
      "properties": {
        "norad_id": 38709,
        "name": "EXACTVIEW-1 (ADS-1B)",
        "group": "resource",
        "lat": NaN,
        "lon": NaN,
        "alt_km": NaN,
        "timestamp": "2025-12-01T03:03:40.644122+00:00",
        "meta": {
          "OBJECT_NAME": "EXACTVIEW-1 (ADS-1B)",
          "OBJECT_ID": "2012-039C",
          "EPOCH": "2025-11-30T17:39:57.447648",
          "MEAN_MOTION": 14.24899818,
          "ECCENTRICITY": 0.0011274,
          "INCLINATION": 98.9635,
          "RA_OF_ASC_NODE": 82.8747,
          "ARG_OF_PERICENTER": 28.4521,
          "MEAN_ANOMALY": 331.727,
          "EPHEMERIS_TYPE": 0,
          "CLASSIFICATION_TYPE": "U",
          "NORAD_CAT_ID": 38709,
          "ELEMENT_SET_NO": 999,
          "REV_AT_EPOCH": 69444,
          "BSTAR": 8.5635e-05,
          "MEAN_MOTION_DOT": 1.54e-06,
          "MEAN_MOTION_DDOT": 0
        }
      },
      "geometry": {
        "type": "Point",
        "coordinates": [
          NaN,
          NaN
        ]
      }
    },
    {
      "type": "Feature",
      "properties": {
        "norad_id": 38755,
        "name": "SPOT 6",
        "group": "resource",
        "lat": NaN,
        "lon": NaN,
        "alt_km": NaN,
        "timestamp": "2025-12-01T03:03:40.644128+00:00",
        "meta": {
          "OBJECT_NAME": "SPOT 6",
          "OBJECT_ID": "2012-047A",
          "EPOCH": "2025-11-30T19:14:32.348256",
          "MEAN_MOTION": 14.5858454,
          "ECCENTRICITY": 0.0001029,
          "INCLINATION": 98.1588,
          "RA_OF_ASC_NODE": 39.8051,
          "ARG_OF_PERICENTER": 98.8456,
          "MEAN_ANOMALY": 261.286,
          "EPHEMERIS_TYPE": 0,
          "CLASSIFICATION_TYPE": "U",
          "NORAD_CAT_ID": 38755,
          "ELEMENT_SET_NO": 999,
          "REV_AT_EPOCH": 70413,
          "BSTAR": 9.8111e-05,
          "MEAN_MOTION_DOT": 4.11e-06,
          "MEAN_MOTION_DDOT": 0
        }
      },
      "geometry": {
        "type": "Point",
        "coordinates": [
          NaN,
          NaN
        ]
      }
    },
    {
      "type": "Feature",
      "properties": {
        "norad_id": 39019,
        "name": "PLEIADES 1B",
        "group": "resource",
        "lat": NaN,
        "lon": NaN,
        "alt_km": NaN,
        "timestamp": "2025-12-01T03:03:40.644137+00:00",
        "meta": {
          "OBJECT_NAME": "PLEIADES 1B",
          "OBJECT_ID": "2012-068A",
          "EPOCH": "2025-11-28T00:11:28.841280",
          "MEAN_MOTION": 14.58591848,
          "ECCENTRICITY": 0.0001299,
          "INCLINATION": 98.181,
          "RA_OF_ASC_NODE": 44.8913,
          "ARG_OF_PERICENTER": 88.6876,
          "MEAN_ANOMALY": 271.4472,
          "EPHEMERIS_TYPE": 0,
          "CLASSIFICATION_TYPE": "U",
          "NORAD_CAT_ID": 39019,
          "ELEMENT_SET_NO": 999,
          "REV_AT_EPOCH": 69152,
          "BSTAR": 0.00011327,
          "MEAN_MOTION_DOT": 4.81e-06,
          "MEAN_MOTION_DDOT": 0
        }
      },
      "geometry": {
        "type": "Point",
        "coordinates": [
          NaN,
          NaN
        ]
      }
    },
    {
      "type": "Feature",
      "properties": {
        "norad_id": 39030,
        "name": "GOKTURK 2",
        "group": "resource",
        "lat": NaN,
        "lon": NaN,
        "alt_km": NaN,
        "timestamp": "2025-12-01T03:03:40.644143+00:00",
        "meta": {
          "OBJECT_NAME": "GOKTURK 2",
          "OBJECT_ID": "2012-073A",
          "EPOCH": "2025-11-30T20:20:05.704800",
          "MEAN_MOTION": 14.75263774,
          "ECCENTRICITY": 7.89e-05,
          "INCLINATION": 97.6908,
          "RA_OF_ASC_NODE": 177.0851,
          "ARG_OF_PERICENTER": 88.8548,
          "MEAN_ANOMALY": 271.2753,
          "EPHEMERIS_TYPE": 0,
          "CLASSIFICATION_TYPE": "U",
          "NORAD_CAT_ID": 39030,
          "ELEMENT_SET_NO": 999,
          "REV_AT_EPOCH": 69526,
          "BSTAR": 0.00010751,
          "MEAN_MOTION_DOT": 6.8e-06,
          "MEAN_MOTION_DDOT": 0
        }
      },
      "geometry": {
        "type": "Point",
        "coordinates": [
          NaN,
          NaN
        ]
      }
    },
    {
      "type": "Feature",
      "properties": {
        "norad_id": 39084,
        "name": "LANDSAT 8",
        "group": "resource",
        "lat": NaN,
        "lon": NaN,
        "alt_km": NaN,
        "timestamp": "2025-12-01T03:03:40.644150+00:00",
        "meta": {
          "OBJECT_NAME": "LANDSAT 8",
          "OBJECT_ID": "2013-008A",
          "EPOCH": "2025-11-30T18:38:13.988256",
          "MEAN_MOTION": 14.57120927,
          "ECCENTRICITY": 0.0001092,
          "INCLINATION": 98.2087,
          "RA_OF_ASC_NODE": 43.0257,
          "ARG_OF_PERICENTER": 88.067,
          "MEAN_ANOMALY": 272.0654,
          "EPHEMERIS_TYPE": 0,
          "CLASSIFICATION_TYPE": "U",
          "NORAD_CAT_ID": 39084,
          "ELEMENT_SET_NO": 999,
          "REV_AT_EPOCH": 66900,
          "BSTAR": 0.00010837,
          "MEAN_MOTION_DOT": 4.43e-06,
          "MEAN_MOTION_DDOT": 0
        }
      },
      "geometry": {
        "type": "Point",
        "coordinates": [
          NaN,
          NaN
        ]
      }
    },
    {
      "type": "Feature",
      "properties": {
        "norad_id": 39086,
        "name": "SARAL",
        "group": "resource",
        "lat": NaN,
        "lon": NaN,
        "alt_km": NaN,
        "timestamp": "2025-12-01T03:03:40.644155+00:00",
        "meta": {
          "OBJECT_NAME": "SARAL",
          "OBJECT_ID": "2013-009A",
          "EPOCH": "2025-11-30T18:51:22.817664",
          "MEAN_MOTION": 14.32750111,
          "ECCENTRICITY": 0.0002533,
          "INCLINATION": 98.5507,
          "RA_OF_ASC_NODE": 158.8718,
          "ARG_OF_PERICENTER": 131.7264,
          "MEAN_ANOMALY": 228.4137,
          "EPHEMERIS_TYPE": 0,
          "CLASSIFICATION_TYPE": "U",
          "NORAD_CAT_ID": 39086,
          "ELEMENT_SET_NO": 999,
          "REV_AT_EPOCH": 66719,
          "BSTAR": 7.1717e-05,
          "MEAN_MOTION_DOT": 1.52e-06,
          "MEAN_MOTION_DDOT": 0
        }
      },
      "geometry": {
        "type": "Point",
        "coordinates": [
          NaN,
          NaN
        ]
      }
    },
    {
      "type": "Feature",
      "properties": {
        "norad_id": 39150,
        "name": "GAOFEN-1",
        "group": "resource",
        "lat": NaN,
        "lon": NaN,
        "alt_km": NaN,
        "timestamp": "2025-12-01T03:03:40.644161+00:00",
        "meta": {
          "OBJECT_NAME": "GAOFEN-1",
          "OBJECT_ID": "2013-018A",
          "EPOCH": "2025-11-30T20:13:22.062144",
          "MEAN_MOTION": 14.76498966,
          "ECCENTRICITY": 0.001746,
          "INCLINATION": 97.934,
          "RA_OF_ASC_NODE": 45.7115,
          "ARG_OF_PERICENTER": 180.5292,
          "MEAN_ANOMALY": 179.5902,
          "EPHEMERIS_TYPE": 0,
          "CLASSIFICATION_TYPE": "U",
          "NORAD_CAT_ID": 39150,
          "ELEMENT_SET_NO": 999,
          "REV_AT_EPOCH": 67897,
          "BSTAR": 0.00012943,
          "MEAN_MOTION_DOT": 8.52e-06,
          "MEAN_MOTION_DDOT": 0
        }
      },
      "geometry": {
        "type": "Point",
        "coordinates": [
          NaN,
          NaN
        ]
      }
    },
    {
      "type": "Feature",
      "properties": {
        "norad_id": 39160,
        "name": "VNREDSAT 1",
        "group": "resource",
        "lat": NaN,
        "lon": NaN,
        "alt_km": NaN,
        "timestamp": "2025-12-01T03:03:40.644167+00:00",
        "meta": {
          "OBJECT_NAME": "VNREDSAT 1",
          "OBJECT_ID": "2013-021B",
          "EPOCH": "2025-11-30T19:19:00.241824",
          "MEAN_MOTION": 14.64892803,
          "ECCENTRICITY": 0.0001399,
          "INCLINATION": 97.939,
          "RA_OF_ASC_NODE": 30.4973,
          "ARG_OF_PERICENTER": 84.3805,
          "MEAN_ANOMALY": 275.7558,
          "EPHEMERIS_TYPE": 0,
          "CLASSIFICATION_TYPE": "U",
          "NORAD_CAT_ID": 39160,
          "ELEMENT_SET_NO": 999,
          "REV_AT_EPOCH": 67124,
          "BSTAR": 0.00014464,
          "MEAN_MOTION_DOT": 7.27e-06,
          "MEAN_MOTION_DDOT": 0
        }
      },
      "geometry": {
        "type": "Point",
        "coordinates": [
          NaN,
          NaN
        ]
      }
    }
  ]
}